**************************************************************************************
                       INSTITUTO DE INGENIERIA, UNAM
                  Coordinacion de Instrumentacion Sismica
  Ciudad Universitaria, Apartado Postal 70-472, Coyoacan 04510, Mexico, D.F.
 Tel.(52-5)622-3414    Fax.(52-5)616-1514    e-mail: isismica@mercalli.iingen.unam.mx
**************************************************************************************
ARCHIVO ESTANDAR DE ACELERACION:
VERSION DEL FORMATO                    : 2.0
NOMBRE DEL ARCHIVO                     : VIGA8904.251
FECHA Y HORA DE CREACION               : 17-Aug-2000 14:36:32
REF. CATALOGO ACELEROGRAMAS, SMIS 1995 : REGISTRO NO.      /PAG.


================================================================================
DATOS DE LA ESTACION:
NOMBRE DE LA ESTACION                  : LAS VIGAS
CLAVE DE LA ESTACION                   : VIGA
LOCALIZACION DE LA ESTACION            : 
                                       : 
                                       : 
                                       : 
                                       : 
COORDENADAS DE LA ESTACION             : 16.758 LAT. N
                                       : 99.23 LONG. W
ALTITUD (msnm)                         : 
TIPO DE SUELO                          : 
                                       : 
                                       : 
INSTITUCION RESPONSABLE                : INSTITUTO DE INGENIERIA UNAM
                                       : 

================================================================================
DATOS DEL ACELEROGRAFO: 
MODELO DEL ACELEROGRAFO                : DSA-1
NUMERO DE SERIE DEL ACELEROGRAFO       :  253
NUMERO DE CANALES                      : 3
ORIENTACION C1-C6 (rumbo;orientacion)  : /V/N90W/N00W
ORIENTACION C7-C12 (rumbo;orientacion) : 
VEL. DE MUESTREO, C1-C6 (muestras/s)   : /200/200/200
VEL. DE MUESTREO, C7-C12 (muestras/s)  : 
ESC. COMPLETA DE SENSORES, C1-C6, (g)  : 
ESC. COMPLETA DE SENSORES, C7-C12 (g)  : 
FREC. NAT. DE SENSORES, C1-C6, (Hz)    : 
FREC. NAT. DE SENSORES, C7-C12 (Hz)    : 
AMORTIGUAMIENTO DE SENSORES, C1-C6     : 
AMORTIGUAMIENTO DE SENSORES, C7-C12    : 
INTERVALO DE MUESTREO, C1-C6 (s)       : /0.005/0.005/0.005
INTERVALO DE MUESTREO, C7-C12 (s)      : 
UMBRAL DE DISPARO, C1-C6 (Gal)         : 
UMBRAL DE DISPARO, C7-C12 (Gal)        : 
MEMORIA DE PREEVENTO (s)               : 
TIEMPO DE POSEVENTO (s)                : 


================================================================================
DATOS DEL SISMO:
FECHA DEL SISMO [GMT]                  : 89/04/25
HORA EPICENTRO (GMT)                   : 14:29:00.36
MAGNITUD(ES)                           : /MII=6.5
COORDENADAS DEL EPICENTRO              : 16.603 LAT. N
                                       : 99.4 LONG. W
PROFUNDIDAD FOCAL (Km)                 : 19
FUENTE DE LOS DATOS EPICENTRALES       : UNR Seismological Laboratory
                                       : 

================================================================================
DATOS DE ESTE REGISTRO:
HORA DE LA PRIMERA MUESTRA (GMT)       : 14:29:04.09
EXACTITUD DEL TIEMPO (s)               : 
DURACION DEL REGISTRO (s), C1-C6       : /34.43/34.43/34.43
DURACION DEL REGISTRO (s), C7-C12      : 
NUM. TOTAL DE MUESTRAS, C1-C6          : /6886/6886/6886
NUM. TOTAL DE MUESTRAS, C7-C12         : 
ACEL. MAX.(Gal), C1-C6                 : /310.078/128.242/345.967
ACEL. MAX., C1-C6, EN LA MUESTRA       : /1357/1357/1498
ACEL. MAX.(Gal), C7-C12                : 
ACEL. MAX., C7-C12,EN LA MUESTRA       : 
UNIDADES DE LOS DATOS                  : Gal (cm/s/s)
FACTOR DE DECIMACION                   : 1
FORMATO DATOS (FORTRAN,10 campos/dato) : 3F10.3


================================================================================
CALIDAD DEL ACELEROGRAMA:
REGISTRO DIGITAL COMPLETO CON TIEMPO ABSOLUTO CORRECTO.


================================================================================
COMENTARIOS:














================================================================================
DATOS DE ACELERACION:
---------+---------+---------+---------+---------+---------+---------+---------+
   CANAL-1   CANAL-2   CANAL-3
         V      N90W      N00W
---------+---------+---------+---------+---------+---------+---------+---------+
[...]
   -26.797     0.957    12.920
   -33.496     2.871    17.705
   -36.367    12.441     3.350
   -26.797    32.539   -14.834
    -9.570    48.809   -16.748
     1.914    52.637    -7.178
     3.828    44.023    -6.221
     2.871    28.711   -12.920
     7.656    13.398   -24.404
    15.313    -2.871   -27.275
    19.141   -11.484   -30.146
    19.141    -6.699   -34.932
    16.270     0.000   -30.146
    12.441    -0.957   -17.705
     8.613    -7.656    -4.307
     3.828   -15.313     6.221
     0.957   -18.184    14.834
     0.957   -15.313    20.576
     0.957   -14.355    23.447
     0.000   -14.355    22.490
    -2.871   -10.527    10.049
    -2.871     0.000    -4.307
     0.957     8.613    -9.092
    10.527    12.441    -2.393
    19.141     9.570    10.049
    21.055    -1.914    19.619
    17.227   -17.227    22.490
     8.613   -32.539    20.576
     3.828   -42.109    11.006
     3.828   -42.109    -7.178
     1.914   -31.582   -20.576
    -7.656   -12.441   -22.490
   -19.141     3.828   -14.834
   -26.797    10.527    -3.350
   -24.883    11.484     4.307
   -15.313    10.527    10.049
    -2.871     4.785    15.791
     7.656   -10.527    11.963
    11.484   -28.711    -7.178
     6.699   -41.152   -34.932
     0.957   -46.895   -54.072
    -1.914   -44.980   -47.373
     1.914   -40.195   -15.791
     7.656   -41.152    20.576
    10.527   -44.023    44.502
     4.785   -37.324    54.072
    -2.871   -21.055    63.643
    -7.656    -7.656    77.041
   -11.484    -2.871    79.912
   -10.527     0.000    62.686
     0.000     3.828    32.061
    20.098     4.785     7.178
    42.109     1.914     0.479
    59.336    -6.699    12.920
    70.820   -14.355    28.232
    73.691   -13.398    33.018
    70.820    -1.914    27.275
    65.078    12.441    21.533
    57.422    17.227    20.576
    46.895    10.527    22.490
    32.539    -5.742    25.361
    21.055   -22.969    26.318
    13.398   -26.797    24.404
    12.441   -13.398    29.189
    17.227     3.828    47.373
    19.141    13.398    63.643
     4.785    18.184    56.943
   -22.969    23.926    29.189
   -52.637    26.797     2.393
   -75.605    21.055   -15.791
   -89.004     9.570   -36.846
   -92.832    -3.828   -63.643
   -87.090   -15.313  -101.924
   -74.648   -16.270  -134.463
   -58.379    -1.914  -147.861
   -41.152    22.969  -136.377
   -32.539    46.895  -110.537
   -35.410    57.422   -79.912
   -49.766    50.723   -61.729
   -61.250    35.410   -68.428
   -55.508    25.840   -91.396
   -26.797    30.625  -105.752
    16.270    35.410   -87.568
    54.551    26.797   -46.416
    77.520     5.742   -11.006
    86.133   -17.227    13.877
    82.305   -35.410    30.146
    69.863   -44.980    45.459
    50.723   -44.023    54.072
    35.410   -30.625    54.072
    25.840   -14.355    54.072
    21.055    -8.613    60.771
    21.055   -14.355    64.600
    32.539   -22.969    61.729
    49.766   -26.797    52.158
    59.336   -19.141    42.588
    48.809    -3.828    37.803
    21.055    11.484    34.932
   -13.398    22.012    23.447
   -43.066    27.754     8.135
   -61.250    22.012     2.393
   -67.949     8.613    -0.479
   -58.379     3.828   -11.963
   -34.453     8.613   -25.361
    -6.699    12.441   -33.018
    16.270     4.785   -31.104
    27.754   -19.141   -21.533
    28.711   -53.594   -23.447
    30.625   -69.863   -54.072
    38.281   -56.465   -86.611
    46.895   -25.840   -77.998
    53.594     1.914   -23.447
    55.508    19.141    45.459
    49.766    18.184   102.881
    41.152    -7.656   140.205
    31.582   -42.109   152.646
    25.840   -64.121   140.205
    23.926   -65.078   112.451
    24.883   -52.637    84.697
    18.184   -41.152    66.514
     1.914   -33.496    49.287
   -15.313   -25.840    26.318
   -30.625   -15.313    -0.479
   -47.852     0.000   -24.404
   -75.605    18.184   -34.932
  -107.188    31.582   -35.889
  -128.242    34.453   -45.459
  -132.070    28.711   -63.643
  -122.500    21.055   -78.955
   -96.660    14.355   -86.611
   -46.895     8.613   -86.611
    20.098    -3.828   -77.041
    79.434   -21.055   -63.643
   111.016   -30.625   -55.029
   118.672   -32.539   -41.631
   111.973   -31.582   -23.447
    99.531   -33.496    -2.393
    84.219   -22.969     9.092
    72.734     0.000    13.877
    69.863    26.797    22.490
    70.820    44.023    48.330
    56.465    39.238    98.096
    21.055     9.570   146.904
   -25.840   -28.711   155.518
   -74.648   -54.551   113.408
  -113.887   -57.422    43.545
  -133.984   -36.367   -25.361
  -131.113     0.000   -84.697
  -109.102    41.152  -137.334
   -79.434    73.691  -173.701
   -57.422    89.961  -171.787
   -42.109    86.133  -128.721
   -23.926    68.906   -65.557
     0.957    47.852    -5.264
    30.625    30.625    44.502
    59.336    13.398    81.826
    77.520    -3.828   103.838
    78.477   -18.184   104.795
    65.078   -27.754    91.396
    37.324   -43.066    68.428
     0.000   -66.035    37.803
   -38.281   -82.305    -4.307
   -64.121   -71.777   -53.115
   -53.594   -33.496   -81.826
    -3.828     7.656   -61.729
    64.121    34.453    -4.307
   110.059    54.551    52.158
   119.629    72.734    88.525
   106.230    77.520   101.924
    83.262    66.992    94.268
    58.379    49.766    73.213
    34.453    35.410    46.416
    14.355    22.969    23.447
     3.828     3.828    19.619
    10.527   -19.141    33.975
    38.281   -37.324    48.330
    77.520   -50.723    57.900
   105.273   -63.164    58.857
    91.875   -68.906    38.760
    23.926   -53.594    -4.307
   -73.691   -18.184   -60.771
  -163.652    22.969  -114.365
  -221.074    55.508  -158.389
  -243.086    73.691  -185.186
  -223.945    77.520  -195.713
  -167.480    76.563  -190.928
   -99.531    79.434  -162.217
   -49.766    79.434   -97.139
   -22.012    66.992   -11.006
     1.914    46.895    53.115
    39.238    21.055    71.299
    87.090    -7.656    57.900
   139.727   -29.668    36.846
   187.578   -29.668    16.748
   228.730    -8.613     5.264
   250.742    15.313    16.748
   241.172    26.797    57.900
   191.406    20.098   107.666
   121.543    -3.828   130.635
    54.551   -34.453   126.807
    12.441   -63.164    95.225
    -4.785   -71.777    55.029
     0.957   -60.293    22.490
    24.883   -37.324    15.791
    49.766    -5.742    33.018
    51.680    27.754    54.072
    17.227    54.551    50.244
   -52.637    74.648    11.006
  -141.641    92.832   -60.771
  -228.730   111.973  -148.818
  -290.938   125.371  -233.037
  -310.078   128.242  -294.287
  -274.668   117.715  -314.385
  -183.750    85.176  -282.803
   -71.777    37.324  -207.197
    20.098    -9.570  -104.795
    72.734   -42.109    -0.479
    91.875   -50.723    66.514
    80.391   -44.980    64.600
    37.324   -42.109    11.963
   -16.270   -44.023   -45.459
   -49.766   -42.109   -89.482
   -44.023   -36.367  -117.236
     7.656   -31.582  -126.807
    96.660   -30.625  -114.365
   194.277   -24.883   -70.342
   264.141   -11.484    11.006
   278.496     4.785   109.580
   216.289    16.270   175.615
    91.875    22.012   172.744
   -32.539    20.098   113.408
  -103.359    13.398    27.275
  -126.328    13.398   -56.943
  -125.371    24.883  -118.193
  -107.188    37.324  -144.033
   -80.391    32.539  -131.592
   -61.250    14.355   -87.568
   -52.637    -2.871   -40.674
   -42.109   -14.355   -19.619
   -15.313   -18.184   -33.018
    14.355   -11.484   -50.244
    29.668     0.000   -30.146
    23.926    14.355    29.189
     4.785    37.324   100.967
   -12.441    62.207   167.002
   -21.055    69.863   223.467
   -28.711    56.465   260.791
   -39.238    27.754   256.963
   -44.023    -3.828   190.928
   -35.410   -20.098    80.869
   -17.227   -17.227   -33.018
     3.828    -7.656  -119.150
    30.625    -2.871  -174.658
    61.250     5.742  -207.197
    85.176    15.313  -216.768
    87.090     3.828  -205.283
    59.336   -34.453  -192.842
     8.613   -74.648  -198.584
   -45.938   -91.875  -220.596
   -79.434   -78.477  -226.338
   -70.820   -41.152  -171.787
   -30.625     4.785   -69.385
     4.785    41.152    27.275
    23.926    61.250    97.139
    17.227    56.465   120.107
    -5.742    42.109   119.150
   -38.281    30.625   122.021
   -68.906    22.012   136.377
   -72.734    19.141   148.818
   -42.109    18.184   138.291
    -3.828     7.656   106.709
    17.227   -15.313    68.428
    22.969   -43.066    33.975
    27.754   -61.250     0.479
    40.195   -64.121   -37.803
    52.637   -56.465   -77.998
    57.422   -42.109  -111.494
    48.809   -22.012  -127.764
    21.055    -0.957  -119.150
   -11.484    16.270   -78.955
   -27.754    27.754    -2.393
   -18.184    28.711    97.139
     6.699    19.141   179.443
    29.668    -0.957   204.326
    41.152   -21.055   161.260
    40.195   -32.539    85.654
    21.055   -29.668    30.146
   -14.355   -24.883    19.619
   -54.551   -26.797    38.760
   -76.563   -39.238    49.287
   -67.949   -50.723    31.104
   -34.453   -52.637   -10.049
     8.613   -42.109   -55.029
    49.766   -25.840   -84.697
    75.605    -0.957   -81.826
    72.734    28.711   -48.330
    34.453    51.680    -6.221
   -25.840    61.250    14.834
   -85.176    56.465     7.178
  -126.328    35.410   -16.748
  -144.512     4.785   -49.287
  -144.512   -30.625   -85.654
  -125.371   -63.164  -120.107
   -78.477   -77.520  -138.291
    -1.914   -69.863  -122.021
    91.875   -50.723   -75.127
   172.266   -38.281   -26.318
   211.504   -45.938     4.307
   197.148   -64.121    14.834
   144.512   -73.691    15.791
    87.090   -66.035    26.318
    53.594   -50.723    60.771
    55.508   -38.281   110.537
    82.305   -29.668   160.303
   110.059   -22.969   198.584
   122.500   -22.012   229.209
   111.016   -24.883   254.092
    71.777   -25.840   270.361
    16.270   -22.012   263.662
   -38.281   -22.012   226.338
   -81.348   -28.711   161.260
  -110.059   -35.410    77.041
  -126.328   -32.539   -14.834
  -125.371   -20.098   -90.439
  -100.488    -9.570  -124.893
   -57.422   -10.527  -110.537
   -11.484   -13.398   -81.826
    24.883   -15.313   -63.643
    39.238   -11.484   -80.869
    33.496    -5.742  -111.494
     4.785     5.742  -122.979
   -47.852    25.840   -92.354
  -114.844    48.809   -27.275
  -179.922    63.164    46.416
  -232.559    60.293   100.010
  -262.227    44.023   119.150
  -260.313    26.797   111.494
  -214.375    19.141    85.654
  -127.285    26.797    52.158
   -27.754    39.238    18.662
    53.594    45.938    -6.221
   104.316    42.109   -18.662
   131.113    34.453   -17.705
   149.297    27.754   -11.006
   170.352    20.098    -8.135
   190.449     9.570    -8.135
   202.891     0.957    -3.350
   209.590    -2.871    18.662
   213.418    -5.742    63.643
   213.418   -12.441   131.592
   201.934   -21.055   216.768
   173.223   -34.453   300.029
   134.941   -50.723   345.967
   100.488   -62.207   314.385
    76.563   -55.508   211.982
    60.293   -32.539    92.354
    33.496    -4.785     2.393
   -13.398    22.969   -52.158
   -67.949    42.109   -82.783
  -117.715    49.766  -102.881
  -153.125    44.980  -122.021
  -173.223    39.238  -142.119
  -172.266    39.238  -161.260
  -147.383    43.066  -170.830
  -111.973    46.895  -155.518
   -87.090    47.852  -111.494
   -81.348    41.152   -53.115
   -80.391    25.840    -8.135
   -72.734     6.699     9.092
   -57.422   -12.441     1.436
   -35.410   -29.668   -17.705
   -10.527   -41.152   -41.631
    15.313   -39.238   -65.557
    39.238   -18.184   -75.127
    59.336    10.527   -50.244
    81.348    28.711     4.307
   103.359    26.797    62.686
   121.543     7.656   101.924
   126.328   -19.141   104.795
   112.930   -36.367    74.170
    78.477   -39.238    33.975
    31.582   -32.539    13.877
   -12.441   -22.012    15.791
   -41.152   -16.270    15.791
   -41.152   -16.270   -11.006
   -18.184   -15.313   -67.471
     6.699    -1.914  -133.506
    20.098    23.926  -183.271
    22.969    50.723  -200.498
    19.141    66.992  -189.014
    15.313    70.820  -168.916
    17.227    66.992  -146.904
    30.625    60.293  -132.549
    55.508    53.594  -118.193
    74.648    51.680   -92.354
    77.520    57.422   -50.244
    57.422    58.379     5.264
    17.227    45.938    61.729
   -34.453    18.184    93.311
   -78.477   -11.484    77.998
   -91.875   -26.797    18.662
   -73.691   -26.797   -45.459
   -42.109   -19.141   -81.826
    -9.570    -8.613   -83.740
    19.141     1.914   -59.814
    35.410     4.785   -28.232
    30.625   -10.527    -0.479
    15.313   -34.453    10.049
    15.313   -45.938    -0.479
    36.367   -34.453   -15.791
    61.250   -12.441   -11.963
    66.992     6.699    19.619
    57.422    17.227    72.256
    46.895    19.141   126.807
    42.109    12.441   164.131
    34.453     2.871   170.830
    22.969    -2.871   149.775
    12.441    -2.871   118.193
     4.785    -4.785    98.096
    -1.914    -9.570    89.482
    -2.871   -11.484    83.740
    11.484   -10.527    77.998
    45.938   -10.527    73.213
    82.305   -11.484    60.771
   104.316   -11.484    30.146
    98.574   -15.313   -14.834
    64.121   -23.926   -62.686
     8.613   -30.625   -99.053
   -51.680   -23.926  -114.365
   -93.789    -1.914   -98.096
  -105.273    21.055   -47.373
  -105.273    27.754    14.834
  -117.715    15.313    52.158
  -147.383    -2.871    42.588
  -174.180   -10.527    -4.307
  -179.922     4.785   -65.557
  -159.824    40.195  -111.494
  -124.414    78.477  -125.850
   -85.176   103.359  -108.623
   -49.766   105.273   -80.869
   -18.184    80.391   -58.857
     8.613    33.496   -43.545
    32.539   -19.141   -24.404
    53.594   -55.508     4.307
    74.648   -65.078    37.803
    94.746   -48.809    65.557
   104.316   -20.098    79.912
    88.047     4.785    70.342
    38.281    19.141    32.061
   -29.668    18.184   -15.791
   -90.918     4.785   -48.330
  -127.285    -9.570   -46.416
  -121.543   -11.484    -8.135
   -65.078     1.914    57.900
    24.883    18.184   122.979
   112.930    26.797   168.916
   161.738    20.098   179.443
   160.781     6.699   150.732
   111.973    -8.613    73.213
    31.582   -19.141   -42.588
   -61.250   -24.883  -163.174
  -140.684   -31.582  -251.221
  -174.180   -44.023  -296.201
  -130.156   -50.723  -314.385
    -7.656   -38.281  -314.385
   148.340   -10.527  -266.533
   268.926    15.313  -159.346
   304.336    31.582   -21.533
   245.957    40.195   108.623
   128.242    36.367   172.744
    -3.828     7.656   126.807
  -111.973   -31.582    11.006
  -167.480   -45.938  -102.881
  -156.953   -19.141  -149.775
  -103.359    25.840   -99.053
   -46.895    58.379     7.178
   -14.355    61.250   102.881
   -10.527    46.895   159.346
   -25.840    39.238   187.100
   -48.809    39.238   195.713
   -82.305    32.539   187.100
  -121.543    14.355   158.389
  -152.168    -6.699   122.021
  -156.953   -17.227    96.182
  -116.758   -14.355    83.740
   -30.625   -11.484    69.385
    60.293   -18.184    42.588
   113.887   -28.711     8.135
   105.273   -38.281   -20.576
    45.938   -44.980   -27.275
   -21.055   -55.508   -21.533
   -54.551   -66.992   -32.061
   -44.980   -70.820   -65.557
    -1.914   -60.293   -95.225
    50.723   -34.453   -96.182
    87.090    -5.742   -69.385
   102.402    15.313   -49.287
   104.316    22.012   -60.771
   101.445    17.227   -94.268
   104.316     8.613  -137.334
   116.758    -1.914  -195.713
   132.070    -7.656  -267.490
   146.426   -10.527  -318.213
   159.824    -6.699  -306.729
